{"type": "FeatureCollection", "features": [ {"type": "Feature", "properties": {"norad_id": 66678, "name": "TRANSPORTER-15N", "group": "last-30-days", "lat": 19.32627888806748, "lon": 70.68595397311016, "alt_km": 516.2403572648955, "timestamp": "2025-12-27T20:30:58.021320+00:00", "meta": {"OBJECT_NAME": "TRANSPORTER-15N", "OBJECT_ID": "2025-276N", "EPOCH": "2025-12-27T10:55:36.819264", "MEAN_MOTION": 15.16330553, "ECCENTRICITY": 0.0003817, "INCLINATION": 97.4382, "RA_OF_ASC_NODE": 72.9205, "ARG_OF_PERICENTER": 67.3372, "MEAN_ANOMALY": 292.8264, "EPHEMERIS_TYPE": 0, "CLASSIFICATION_TYPE": "U", "NORAD_CAT_ID": 66678, "ELEMENT_SET_NO": 999, "REV_AT_EPOCH": 435, "BSTAR": -0.017995, "MEAN_MOTION_DOT": -0.00333292, "MEAN_MOTION_DDOT": 0}, "tle": {"line1": "1 66678U 25276N   25361.45528726 -.00333292  00000+0 -17995-1 0  9996", "line2": "2 66678  97.4382  72.9205 0003817  67.3372 292.8264 15.16330553  4357"}}, "geometry": {"type": "Point", "coordinates": [70.68595397311016, 19.32627888806748]}}, {"type": "Feature", "properties": {"norad_id": 66679, "name": "TRANSPORTER-15P", "group": "last-30-days", "lat": 10.627087916189486, "lon": 71.90356282343764, "alt_km": 519.6544819045785, "timestamp": "2025-12-27T20:30:58.021330+00:00", "meta": {"OBJECT_NAME": "TRANSPORTER-15P", "OBJECT_ID": "2025-276P", "EPOCH": "2025-12-27T10:58:07.794624", "MEAN_MOTION": 15.16732458, "ECCENTRICITY": 0.0004784, "INCLINATION": 97.4359, "RA_OF_ASC_NODE": 72.9177, "ARG_OF_PERICENTER": 236.9324, "MEAN_ANOMALY": 123.145, "EPHEMERIS_TYPE": 0, "CLASSIFICATION_TYPE": "U", "NORAD_CAT_ID": 66679, "ELEMENT_SET_NO": 999, "REV_AT_EPOCH": 435, "BSTAR": 0.00021037, "MEAN_MOTION_DOT": 4.06e-05, "MEAN_MOTION_DDOT": 0}, "tle": {"line1": "1 66679U 25276P   25361.45703466  .00004060  00000+0  21037-3 0  9993", "line2": "2 66679  97.4359  72.9177 0004784 236.9324 123.1450 15.16732458  4358"}}, "geometry": {"type": "Point", "coordinates": [71.90356282343764, 10.627087916189486]}}, {"type": "Feature", "properties": {"norad_id": 66680, "name": "TRANSPORTER-15Q", "group": "last-30-days", "lat": 21.16922078671737, "lon": 70.42782887865908, "alt_km": 518.2888853087643, "timestamp": "2025-12-27T20:30:58.021340+00:00", "meta": {"OBJECT_NAME": "TRANSPORTER-15Q", "OBJECT_ID": "2025-276Q", "EPOCH": "2025-12-27T10:55:23.136096", "MEAN_MOTION": 15.16898987, "ECCENTRICITY": 0.0004954, "INCLINATION": 97.4406, "RA_OF_ASC_NODE": 72.9365, "ARG_OF_PERICENTER": 226.6275, "MEAN_ANOMALY": 133.4546, "EPHEMERIS_TYPE": 0, "CLASSIFICATION_TYPE": "U", "NORAD_CAT_ID": 66680, "ELEMENT_SET_NO": 999, "REV_AT_EPOCH": 435, "BSTAR": 0.00051327, "MEAN_MOTION_DOT": 0.00010055, "MEAN_MOTION_DDOT": 0}, "tle": {"line1": "1 66680U 25276Q   25361.45512889  .00010055  00000+0  51327-3 0  9998", "line2": "2 66680  97.4406  72.9365 0004954 226.6275 133.4546 15.16898987  4352"}}, "geometry": {"type": "Point", "coordinates": [70.42782887865908, 21.16922078671737]}}, {"type": "Feature", "properties": {"norad_id": 66681, "name": "TRANSPORTER-15R", "group": "last-30-days", "lat": 60.15562482537895, "lon": 60.165203307482614, "alt_km": 510.52686522310796, "timestamp": "2025-12-27T20:30:58.021350+00:00", "meta": {"OBJECT_NAME": "TRANSPORTER-15R", "OBJECT_ID": "2025-276R", "EPOCH": "2025-12-27T10:45:12.419424", "MEAN_MOTION": 15.17612874, "ECCENTRICITY": 0.0004943, "INCLINATION": 97.4328, "RA_OF_ASC_NODE": 72.9185, "ARG_OF_PERICENTER": 255.8882, "MEAN_ANOMALY": 104.1802, "EPHEMERIS_TYPE": 0, "CLASSIFICATION_TYPE": "U", "NORAD_CAT_ID": 66681, "ELEMENT_SET_NO": 999, "REV_AT_EPOCH": 435, "BSTAR": 0.00088057, "MEAN_MOTION_DOT": 0.00017674, "MEAN_MOTION_DDOT": 0}, "tle": {"line1": "1 66681U 25276R   25361.44806041  .00017674  00000+0  88057-3 0  9998", "line2": "2 66681  97.4328  72.9185 0004943 255.8882 104.1802 15.17612874  4352"}}, "geometry": {"type": "Point", "coordinates": [60.165203307482614, 60.15562482537895]}}, {"type": "Feature", "properties": {"norad_id": 66682, "name": "TRANSPORTER-15S", "group": "last-30-days", "lat": 2.9683534116621524, "lon": 72.94756201802194, "alt_km": 536.8202914400463, "timestamp": "2025-12-27T20:30:58.021362+00:00", "meta": {"OBJECT_NAME": "TRANSPORTER-15S", "OBJECT_ID": "2025-276S", "EPOCH": "2025-12-26T23:51:45.551808", "MEAN_MOTION": 15.13006162, "ECCENTRICITY": 0.00165644, "INCLINATION": 97.4342, "RA_OF_ASC_NODE": 72.4972, "ARG_OF_PERICENTER": 119.3207, "MEAN_ANOMALY": 240.9682, "EPHEMERIS_TYPE": 0, "CLASSIFICATION_TYPE": "U", "NORAD_CAT_ID": 66682, "ELEMENT_SET_NO": 999, "REV_AT_EPOCH": 428, "BSTAR": -0.028771681, "MEAN_MOTION_DOT": -0.00477853, "MEAN_MOTION_DDOT": 0}, "tle": {"line1": "1 66682U 25276S   25360.99427722 -.00477853  00000+0 -28772-1 0  9990", "line2": "2 66682  97.4342  72.4972 0016564 119.3207 240.9682 15.13006162  4285"}}, "geometry": {"type": "Point", "coordinates": [72.94756201802194, 2.9683534116621524]}}, {"type": "Feature", "properties": {"norad_id": 66683, "name": "TRANSPORTER-15T", "group": "last-30-days", "lat": 35.0777202721788, "lon": 68.08028470647672, "alt_km": 515.8138595515238, "timestamp": "2025-12-27T20:30:58.021375+00:00", "meta": {"OBJECT_NAME": "TRANSPORTER-15T", "OBJECT_ID": "2025-276T", "EPOCH": "2025-12-27T10:51:44.493120", "MEAN_MOTION": 15.1707444, "ECCENTRICITY": 0.0004956, "INCLINATION": 97.4443, "RA_OF_ASC_NODE": 72.9535, "ARG_OF_PERICENTER": 221.5373, "MEAN_ANOMALY": 138.5485, "EPHEMERIS_TYPE": 0, "CLASSIFICATION_TYPE": "U", "NORAD_CAT_ID": 66683, "ELEMENT_SET_NO": 999, "REV_AT_EPOCH": 435, "BSTAR": 0.00026726, "MEAN_MOTION_DOT": 5.227e-05, "MEAN_MOTION_DDOT": 0}, "tle": {"line1": "1 66683U 25276T   25361.45259830  .00005227  00000+0  26726-3 0  9995", "line2": "2 66683  97.4443  72.9535 0004956 221.5373 138.5485 15.17074440  4359"}}, "geometry": {"type": "Point", "coordinates": [68.08028470647672, 35.0777202721788]}}, {"type": "Feature", "properties": {"norad_id": 66684, "name": "TRANSPORTER-15U", "group": "last-30-days", "lat": 57.69487825778449, "lon": 61.42890905383675, "alt_km": 511.10977151166117, "timestamp": "2025-12-27T20:30:58.021384+00:00", "meta": {"OBJECT_NAME": "TRANSPORTER-15U", "OBJECT_ID": "2025-276U", "EPOCH": "2025-12-27T10:45:48.233952", "MEAN_MOTION": 15.17436154, "ECCENTRICITY": 0.0004718, "INCLINATION": 97.4467, "RA_OF_ASC_NODE": 72.9678, "ARG_OF_PERICENTER": 220.4165, "MEAN_ANOMALY": 139.6719, "EPHEMERIS_TYPE": 0, "CLASSIFICATION_TYPE": "U", "NORAD_CAT_ID": 66684, "ELEMENT_SET_NO": 999, "REV_AT_EPOCH": 435, "BSTAR": 0.00066755, "MEAN_MOTION_DOT": 0.00013306, "MEAN_MOTION_DDOT": 0}, "tle": {"line1": "1 66684U 25276U   25361.44847493  .00013306  00000+0  66755-3 0  9996", "line2": "2 66684  97.4467  72.9678 0004718 220.4165 139.6719 15.17436154  4353"}}, "geometry": {"type": "Point", "coordinates": [61.42890905383675, 57.69487825778449]}}, {"type": "Feature", "properties": {"norad_id": 66685, "name": "TRANSPORTER-15V", "group": "last-30-days", "lat": 82.49173532731194, "lon": -23.844420613715844, "alt_km": 472.850708610531, "timestamp": "2025-12-27T20:30:58.021421+00:00", "meta": {"OBJECT_NAME": "TRANSPORTER-15V", "OBJECT_ID": "2025-276V", "EPOCH": "2025-12-27T02:47:35.884320", "MEAN_MOTION": 15.21953501, "ECCENTRICITY": 0.00085593, "INCLINATION": 97.4444, "RA_OF_ASC_NODE": 72.6316, "ARG_OF_PERICENTER": 36.5472, "MEAN_ANOMALY": 323.6347, "EPHEMERIS_TYPE": 0, "CLASSIFICATION_TYPE": "U", "NORAD_CAT_ID": 66685, "ELEMENT_SET_NO": 999, "REV_AT_EPOCH": 430, "BSTAR": 0.15371794, "MEAN_MOTION_DOT": 0.03971994, "MEAN_MOTION_DDOT": 0}, "tle": {"line1": "1 66685U 25276V   25361.11638755  .03971994  00000+0  15372+0 0  9994", "line2": "2 66685  97.4444  72.6316 0008559  36.5472 323.6347 15.21953501  4301"}}, "geometry": {"type": "Point", "coordinates": [-23.844420613715844, 82.49173532731194]}}, {"type": "Feature", "properties": {"norad_id": 66686, "name": "TRANSPORTER-15W", "group": "last-30-days", "lat": 39.26447632828938, "lon": 67.21608360142886, "alt_km": 514.7784400072151, "timestamp": "2025-12-27T20:30:58.021432+00:00", "meta": {"OBJECT_NAME": "TRANSPORTER-15W", "OBJECT_ID": "2025-276W", "EPOCH": "2025-12-27T10:50:37.356000", "MEAN_MOTION": 15.1707078, "ECCENTRICITY": 0.0004389, "INCLINATION": 97.4446, "RA_OF_ASC_NODE": 72.9563, "ARG_OF_PERICENTER": 222.4696, "MEAN_ANOMALY": 137.6198, "EPHEMERIS_TYPE": 0, "CLASSIFICATION_TYPE": "U", "NORAD_CAT_ID": 66686, "ELEMENT_SET_NO": 999, "REV_AT_EPOCH": 435, "BSTAR": 0.00040235, "MEAN_MOTION_DOT": 7.904e-05, "MEAN_MOTION_DDOT": 0}, "tle": {"line1": "1 66686U 25276W   25361.45182125  .00007904  00000+0  40235-3 0  9995", "line2": "2 66686  97.4446  72.9563 0004389 222.4696 137.6198 15.17070780  4358"}}, "geometry": {"type": "Point", "coordinates": [67.21608360142886, 39.26447632828938]}}, {"type": "Feature", "properties": {"norad_id": 66687, "name": "TRANSPORTER-15X", "group": "last-30-days", "lat": 5.375460228323952, "lon": 72.60751658984137, "alt_km": 513.0728378434533, "timestamp": "2025-12-27T20:30:58.021445+00:00", "meta": {"OBJECT_NAME": "TRANSPORTER-15X", "OBJECT_ID": "2025-276X", "EPOCH": "2025-12-27T10:59:34.058976", "MEAN_MOTION": 15.16825305, "ECCENTRICITY": 0.000806, "INCLINATION": 97.4384, "RA_OF_ASC_NODE": 72.9226, "ARG_OF_PERICENTER": 39.3211, "MEAN_ANOMALY": 320.8606, "EPHEMERIS_TYPE": 0, "CLASSIFICATION_TYPE": "U", "NORAD_CAT_ID": 66687, "ELEMENT_SET_NO": 999, "REV_AT_EPOCH": 435, "BSTAR": 0.00067098, "MEAN_MOTION_DOT": 0.0001315, "MEAN_MOTION_DDOT": 0}, "tle": {"line1": "1 66687U 25276X   25361.45803309  .00013150  00000+0  67098-3 0  9996", "line2": "2 66687  97.4384  72.9226 0008060  39.3211 320.8606 15.16825305  4354"}}, "geometry": {"type": "Point", "coordinates": [72.60751658984137, 5.375460228323952]}}]}